[{"OBJECT_NAME":"FLOCK 4G-2","OBJECT_ID":"2025-009BE","EPOCH":"2026-03-09T15:53:23.273952","MEAN_MOTION":15.2767526,"ECCENTRICITY":0.00031811,"INCLINATION":97.4044,"RA_OF_ASC_NODE":151.2221,"ARG_OF_PERICENTER":329.2677,"MEAN_ANOMALY":30.8376,"EPHEMERIS_TYPE":0,"CLASSIFICATION_TYPE":"U","NORAD_CAT_ID":62661,"ELEMENT_SET_NO":999,"REV_AT_EPOCH":12132,"BSTAR":0.00051068481,"MEAN_MOTION_DOT":0.00013752,"MEAN_MOTION_DDOT":0},{"OBJECT_NAME":"STARLINK-36440","OBJECT_ID":"2026-008C","EPOCH":"2026-03-09T09:51:38.257344","MEAN_MOTION":15.27607504,"ECCENTRICITY":0.00030507,"INCLINATION":42.9977,"RA_OF_ASC_NODE":206.4372,"ARG_OF_PERICENTER":295.2716,"MEAN_ANOMALY":64.7819,"EPHEMERIS_TYPE":0,"CLASSIFICATION_TYPE":"U","NORAD_CAT_ID":67447,"ELEMENT_SET_NO":999,"REV_AT_EPOCH":953,"BSTAR":0.0013657814,"MEAN_MOTION_DOT":0.00037547,"MEAN_MOTION_DDOT":0}]
